{
    "links": {
        "self": "http://www.neowsapp.com/rest/v1/neo/3749022?api_key=iIulBulltgU6a56xZRHN4H3l9WmuAYTsLGpBGhQ2"
    },
    "id": "3749022",
    "neo_reference_id": "3749022",
    "name": "(2016 GC2)",
    "designation": "2016 GC2",
    "nasa_jpl_url": "http://ssd.jpl.nasa.gov/sbdb.cgi?sstr=3749022",
    "absolute_magnitude_h": 23.3,
    "estimated_diameter": {
        "kilometers": {
            "estimated_diameter_min": 0.058150704,
            "estimated_diameter_max": 0.130028927
        },
        "meters": {
            "estimated_diameter_min": 58.1507039646,
            "estimated_diameter_max": 130.0289270043
        },
        "miles": {
            "estimated_diameter_min": 0.0361331611,
            "estimated_diameter_max": 0.0807962044
        },
        "feet": {
            "estimated_diameter_min": 190.7831555951,
            "estimated_diameter_max": 426.6041048727
        }
    },
    "is_potentially_hazardous_asteroid": false,
    "close_approach_data": [
        {
            "close_approach_date": "2016-03-07",
            "close_approach_date_full": "2016-Mar-07 08:41",
            "epoch_date_close_approach": 1457340060000,
            "relative_velocity": {
                "kilometers_per_second": "5.6775528247",
                "kilometers_per_hour": "20439.1901690293",
                "miles_per_hour": "12700.1179136393"
            },
            "miss_distance": {
                "astronomical": "0.2583849866",
                "lunar": "100.5117597874",
                "kilometers": "38653843.635338542",
                "miles": "24018384.6877021996"
            },
            "orbiting_body": "Earth"
        }
    ],
    "orbital_data": {
        "orbit_id": "5",
        "orbit_determination_date": "2017-04-06 08:26:52",
        "first_observation_date": "2016-04-01",
        "last_observation_date": "2016-04-16",
        "data_arc_in_days": 15,
        "observations_used": 16,
        "orbit_uncertainty": "8",
        "minimum_orbit_intersection": ".214657",
        "jupiter_tisserand_invariant": "3.417",
        "epoch_osculation": "2457480.5",
        "eccentricity": ".4896631006806474",
        "semi_major_axis": "2.281062177220608",
        "inclination": "10.37922675438251",
        "ascending_node_longitude": "18.89791559510728",
        "orbital_period": "1258.357703150412",
        "perihelion_distance": "1.164110198677417",
        "perihelion_argument": "131.2249423796952",
        "aphelion_distance": "3.3980141557638",
        "perihelion_time": "2457429.794059576812",
        "mean_anomaly": "14.50631923390845",
        "mean_motion": ".2860871746552729",
        "equinox": "J2000",
        "orbit_class": {
            "orbit_class_type": "AMO",
            "orbit_class_description": "Near-Earth asteroid orbits similar to that of 1221 Amor",
            "orbit_class_range": "1.017 AU < q (perihelion) < 1.3 AU"
        }
    },
    "is_sentry_object": false
}